OPTICUBE 04             
1 41851U 16067D   24142.38406656  .00005960  00000+0  45125-3 0  9999
2 41851  98.0752 306.2102 0019682 141.7773 218.4850 15.02554870411216
AEROCUBE 8D             
1 41852U 16067E   24142.40821244  .00011769  00000+0  78131-3 0  9994
2 41852  98.1053 310.2219 0005090 186.7697 173.3461 15.07388809411363
AEROCUBE 8C             
1 41853U 16067F   24142.35460056  .00012043  00000+0  80005-3 0  9998
2 41853  98.0854 308.8119 0008762 128.2812 231.9204 15.07335737411349
PROMETHEUS 2-1          
1 41854U 16067G   24142.37346882  .00025593  00000+0  13277-2 0  9991
2 41854  98.0980 315.7490 0013639 148.0546 212.1515 15.16051917411679
PROMETHEUS 2-3          
1 41855U 16067H   24142.36926986  .00025223  00000+0  13102-2 0  9997
2 41855  98.0907 315.2589 0011697 157.2195 202.9557 15.16032002411674
DIDO-2                  
1 42000U 17008BE  24142.66953278  .00192742  00000+0  10271-2 0  9998
2 42000  97.1343 203.4612 0005946 210.7632 149.3288 15.79873854404604
AALTO-1                 
1 42775U 17036L   24142.63170407  .00097124  00000+0  10500-2 0  9993
2 42775  97.1064 172.0143 0002516 275.6043  84.4929 15.63289594384950
URSA MAIOR              
1 42776U 17036M   24142.80163493  .00282095  00000+0  14802-2 0  9992
2 42776  97.0994 176.0697 0004177 218.8123 141.2846 15.79995055385227
CICERO 6                
1 42793U 17036AE  24142.84670320  .00521303  10941-3  15142-2 0  9992
2 42793  97.0741 180.5977 0004808 211.1320 148.9671 15.92897203385639
CORVUS BC2              
1 42846U 17042X   24141.46117361  .00007818  00000+0  67475-3 0  9994
2 42846  97.3740 328.1146 0009498 144.4259 215.7598 14.97478524373292
CORVUS BC1              
1 42847U 17042Y   24142.49402335  .00005200  00000+0  44860-3 0  9993
2 42847  97.3738 329.4899 0008778 139.7678 220.4196 14.97647416373465
MIRATA                  
1 43015U 17073C   24142.58566220  .00032195  00000+0  15426-2 0  9997
2 43015  97.5995  27.6507 0172143 352.4988   7.3667 15.06664462352327
MAKERSAT 0              
1 43016U 17073D   24142.63936525  .00022267  00000+0  12703-2 0  9997
2 43016  97.5844  22.3652 0198356  12.3563 348.2420 14.97558688351930
CORVUS BC3              
1 43118U 18004H   24142.73507868  .00405250  00000+0  14334-2 0  9999
2 43118  97.2818 228.3025 0006352 277.6321  82.4229 15.88060240354733
GOMX-4B                 
1 43196U 18015E   24142.39137837  .00073097  00000+0  88091-3 0  9996
2 43196  97.6060 314.0160 0006958  57.7391 302.4539 15.60530071351348
GOMX-4A                 
1 43197U 18015F   24142.82684073  .00131225  00000+0  10525-2 0  9998
2 43197  97.5959 319.1703 0004614  41.0156 319.1452 15.70601966351731
CICERO 10               
1 43690U 18088A   24142.62357894  .00149888  00000+0  10821-2 0  9995
2 43690  85.0140 198.4669 0001907  86.7149 273.4339 15.73072065308005
SIRION PATHFINDER-2     
1 43759U 18099B   24142.72331670  .00007417  00000+0  56262-3 0  9999
2 43759  97.5269 199.6150 0011888  21.9221 338.2510 15.02456540298533
CORVUS BC4              
1 43767U 18099K   24142.07855296  .00008550  00000+0  65879-3 0  9994
2 43767  97.5183 196.2842 0011964  89.0343 271.2252 15.01811271298324
MOVE-II                 
1 43780U 18099Y   24142.14886024  .00026565  00000+0  14323-2 0  9993
2 43780  97.5229 205.4061 0007816  81.2803 278.9314 15.14725749298839
SPACEBEE-7              
1 43816U 18099BL  24142.12373265  .00022982  00000+0  13801-2 0  9998
2 43816  97.5505 206.1638 0010025  29.3807 330.7985 15.10866662298328
SPACEBEE-6              
1 43818U 18099BN  24142.73109257  .00041137  00000+0  18110-2 0  9996
2 43818  97.5434 211.6792 0007815  30.2171 329.9514 15.21694874298886
SHIELDS 1               
1 43850U 18104B   24142.50209826  .00018993  00000+0  52266-3 0  9992
2 43850  85.0205 301.2155 0011633 163.4123 196.7510 15.36975701302067
SONATE                  
1 44400U 19038Q   24142.45192786  .00027241  00000+0  85057-3 0  9991
2 44400  97.7113 135.3774 0016053 192.1076 167.9781 15.33042707269988
LUCKY-7                 
1 44406U 19038W   24142.52118563  .00046024  00000+0  10689-2 0  9994
2 44406  97.7019 139.1796 0014496 172.9072 187.2382 15.42113264270257
BEESAT 9                
1 44412U 19038AC  24142.73533924  .00667804  18193-3  20270-2 0  9994
2 44412  97.6690 148.7064 0010883 161.1917 198.9760 15.91970343270630
JAISAT-1                
1 44419U 19038F   24142.74808355  .00540713  00000+0  19745-2 0  9993
2 44419  97.6694 149.5922 0010631 154.8631 205.3159 15.87048576271002
DUCHIFAT-3              
1 44854U 19089C   24142.51713812  .00019988  00000+0  10317-2 0  9991
2 44854  36.9568 210.8463 0007657 225.3191 134.6933 15.15586852244157
M2 PATHFINDER           
1 45727U 20037E   24142.38347456  .00006255  00000+0  54858-3 0  9990
2 45727  97.7762 318.9663 0010545 205.4665 154.6038 14.96950324211930
NETSAT-4                
1 46504U 20068U   24142.45287783  .00014792  00000+0  80177-3 0  9990
2 46504  97.8042  98.8839 0012380  94.1452 266.1195 15.14632384200127
NETSAT-3                
1 46505U 20068V   24142.36146720  .00015077  00000+0  82964-3 0  9999
2 46505  97.8015  98.3313 0011434 101.0750 259.1768 15.14099165200108
NETSAT-1                
1 46506U 20068W   24142.44912029  .00010729  00000+0  61802-3 0  9999
2 46506  97.8037  97.9544 0010113 109.4392 250.7931 15.12559145200084
NETSAT-2                
1 46507U 20068X   24142.33622127  .00015220  00000+0  82747-3 0  9997
2 46507  97.8030  98.4055 0009678 113.1142 247.1110 15.14543628200057
WILDTRACKCUBE-SIMBA     
1 47941U 21022K   24142.79346023  .00020444  00000+0  92841-3 0  9999
2 47941  97.4645  39.8069 0014021 231.6279 128.3698 15.20722683174459
BEESAT-6                
1 47957U 21022AB  24142.21831475  .00226584  00000+0  27172-2 0  9990
2 47957  97.4399  49.1014 0009635 158.9967 201.1688 15.60116672174847
SMOG-1                  
1 47964U 21022AJ  24142.72110928  .00171007  00000+0  22008-2 0  9999
2 47964  97.4651  52.7333 0010805 153.9827 206.1974 15.58413247174108
BCCSAT-1                
1 48041U 21022AK  24142.21602753  .00095100  00000+0  19992-2 0  9999
2 48041  97.4662  48.5333 0008776 164.9958 195.1552 15.44934530173769
BEESAT-5                
1 48083U 21022AM  24141.72855085  .00435692  00000+0  31606-2 0  9998
2 48083  97.4104  49.8502 0010373 150.0178 210.1682 15.72085618174032
BEESAT-7                
1 48084U 21022AN  24141.70300736  .00149641  00000+0  22738-2 0  9997
2 48084  97.4618  48.6916 0009906 170.8844 189.2591 15.53986288173484
BEESAT-8                
1 48085U 21022AP  24142.70074574  .00035788  00000+0  11864-2 0  9991
2 48085  97.4777  44.5322 0011269 208.0591 152.0044 15.31125178173823
LEDSAT                  
1 49069U 21073D   24142.73262952  .00021616  00000+0  89085-3 0  9998
2 49069  97.4392 214.0560 0019291  21.2949 338.9087 15.23931889152422
SITRO-AIS 5 (KATYS)     
1 57176U 23091L   24142.81985788  .00012385  00000+0  80490-3 0  9990
2 57176  97.6149 195.2346 0017487 207.1441 152.8874 15.08030612 49521
SITRO-AIS 6 (CHIRKIN)   
1 57192U 23091AC  24142.80606844  .00012213  00000+0  79253-3 0  9995
2 57192  97.6149 195.2442 0017183 206.2991 153.7367 15.08092752 49529
SITRO-AIS 8 (ANOKHIN)   
1 57193U 23091AD  24142.84561854  .00012839  00000+0  82657-3 0  9997
2 57193  97.6135 195.3381 0017047 207.9888 152.0425 15.08376695 49539
SITRO-AIS 7 (FARTUSHNIY)
1 57194U 23091AE  24142.81032507  .00012176  00000+0  79107-3 0  9993
2 57194  97.6147 195.2324 0017062 206.9527 153.0816 15.08051301 49523
SITRO-AIS 10 (BURDAEV)  
1 57199U 23091AK  24142.84714512  .00013962  00000+0  85733-3 0  9990
2 57199  97.6153 196.1632 0012479 194.3673 165.7203 15.10143966 49584
SITRO-AIS 9 (SHCHUKIN)  
1 57201U 23091AM  24142.84521082  .00014041  00000+0  86248-3 0  9993
2 57201  97.6148 196.1441 0012467 194.4288 165.6587 15.10130521 49587
SITRO-AIS 12 (SMIRENNIY)
1 57204U 23091AQ  24142.81098589  .00014255  00000+0  87100-3 0  9999
2 57204  97.6165 196.2304 0012513 187.6933 172.4106 15.10319689 49588
SITRO-AIS 11 (SHEFFER)  
1 57208U 23091AU  24142.86434642  .00013495  00000+0  82309-3 0  9993
2 57208  97.6160 196.3033 0012325 187.6620 172.4422 15.10401200 49594
SITRO-AIS 29            
1 59052U 24039B   24142.88699540  .00033859  00000+0  12842-2 0  9997
2 59052  97.3906 105.1288 0015726 315.3968  44.6004 15.26672957 12582
SITRO-AIS 30            
1 59053U 24039C   24142.88621396  .00032751  00000+0  12428-2 0  9992
2 59053  97.3904 105.1270 0015902 316.3931  43.6050 15.26661003 12578
SITRO-AIS 31            
1 59054U 24039D   24142.88143743  .00033463  00000+0  12657-2 0  9993
2 59054  97.3904 105.1336 0015768 316.1367  43.8619 15.26766267 12596
SITRO-AIS 33            
1 59055U 24039E   24142.87572774  .00033553  00000+0  12645-2 0  9990
2 59055  97.3906 105.1439 0015497 317.1603  42.8428 15.26889612 12582
SITRO-AIS 35            
1 59056U 24039F   24142.87289168  .00030063  00000+0  11324-2 0  9999
2 59056  97.3906 105.1465 0015313 317.2646  42.7401 15.26933072 12587
SITRO-AIS 32            
1 59057U 24039G   24142.87673318  .00031244  00000+0  11809-2 0  9994
2 59057  97.3907 105.1417 0015350 317.4676  42.5372 15.26811089 12580
SITRO-AIS 34            
1 59058U 24039H   24142.87471209  .00033282  00000+0  12552-2 0  9990
2 59058  97.3908 105.1462 0015498 317.3430  42.6605 15.26867432 12585
SITRO-AIS 36            
1 59059U 24039J   24142.86962588  .00034126  00000+0  12825-2 0  9996
2 59059  97.3904 105.1512 0015073 317.6512  42.3562 15.26984708 12586
SITRO-AIS 49            
1 59060U 24039K   24142.86909908  .00033277  00000+0  12519-2 0  9991
2 59060  97.3905 105.1517 0015109 317.1238  42.8822 15.26955177 12586
SITRO-AIS 50            
1 59061U 24039L   24142.86385864  .00033049  00000+0  12375-2 0  9998
2 59061  97.3903 105.1584 0015075 317.3781  42.6287 15.27112940 12583
